satname,norad_id,inclination_deg,eccentricity,mean_motion_rev_per_day,perigee_km,apogee_km,l1,l2
STARLINK-1555,46032,53.056,0.0001486,15.06394103,546.2005219714774,548.258740934346,1 46032U 20055F   26048.65159848 -.00001225  00000+0 -63346-4 0  9990,2 46032  53.0560 216.5725 0001486  89.9741 270.1418 15.06394103305879
STARLINK-1556,46033,53.0562,0.0001233,15.06399191,546.3601416249576,548.0679331907822,1 46033U 20055G   26048.83220707  .00000046  00000+0  21965-4 0  9993,2 46033  53.0562 215.7608 0001233  94.7162 265.3968 15.06399191305872
STARLINK-1557,46034,53.0551,0.0001277,15.06396341,546.3384038260656,548.1071407119025,1 46034U 20055H   26048.70319703  .00001019  00000+0  87315-4 0  9997,2 46034  53.0551 216.3397 0001277  97.1594 262.9540 15.06396341305858
STARLINK-1558,46035,53.0554,8.91e-05,15.06381829,546.6501964773224,547.884303514672,1 46035U 20055J   26048.77691858 -.00002286  00000+0 -13469-3 0  9996,2 46035  53.0554 216.0105 0000891 139.1412 220.9644 15.06381829305891
STARLINK-1560,46036,53.0565,0.0001654,15.06383622,546.1162936501951,548.407215558218,1 46036U 20055K   26048.69582651  .00001784  00000+0  13871-3 0  9995,2 46036  53.0565 216.3719 0001654 126.2653 233.8489 15.06383622305882
STARLINK-1567,46038,53.0571,0.000136,15.06399293,546.2718770937263,548.1555724908694,1 46038U 20055M   26048.70688239 -.00000136  00000+0  97876-5 0  9998,2 46038  53.0571 216.3236 0001360  80.0143 280.0999 15.06399293305870
STARLINK-1569,46039,53.0553,0.0001502,15.06389323,546.2040893302938,548.2844738672857,1 46039U 20055N   26048.78060417  .00001182  00000+0  98252-4 0  9998,2 46039  53.0553 215.9914 0001502  89.6295 270.4866 15.06389323305880
STARLINK-1582,46043,53.0554,0.0001367,15.06384481,546.312420196613,548.205823496327,1 46043U 20055S   26048.65529554 -.00002668  00000+0 -16034-3 0  9990,2 46043  53.0554 216.5565 0001367  93.5760 266.5386 15.06384481305866
STARLINK-1591,46045,53.0554,0.0001334,15.06392543,546.3105681171037,548.1582572100015,1 46045U 20055U   26048.68108022 -.00002571  00000+0 -15378-3 0  9991,2 46045  53.0554 216.4374 0001334 106.8264 253.2871 15.06392543305855
STARLINK-1524,46047,53.0945,0.0001975,15.16542428,514.9381986122244,517.6615011679305,1 46047U 20055W   26048.91668981  .00112764  00000+0  56394-2 0  9990,2 46047  53.0945 205.1938 0001975  96.4448 101.7426 15.16542428  5839
STARLINK-1527,46048,53.0874,0.0001831,15.14783374,520.3729479210906,522.899644902237,1 46048U 20055X   26048.91668981  .00105091  00000+0  55314-2 0  9997,2 46048  53.0874 205.2741 0001831  73.2796 100.1981 15.14783374  5782
STARLINK-1540,46051,53.0949,7.15e-05,15.16425197,516.1621953321146,517.1481506128503,1 46051U 20055AA  26048.91668981  .00110497  00000+0  55466-2 0  9995,2 46051  53.0949 205.1839 0000715  48.1531 355.4023 15.16425197  5548
STARLINK-1541,46052,53.0963,0.000198,15.16468986,515.157302110475,517.8875872505687,1 46052U 20055AB  26048.91668981  .00078032  00000+0  39343-2 0  9990,2 46052  53.0963 205.0823 0001980  90.3644  89.6762 15.16468986  5837
STARLINK-1543,46053,53.0921,0.0001944,15.15796453,517.2209374540771,519.9023738914029,1 46053U 20055AC  26048.91668981  .00113627  00000+0  58035-2 0  9990,2 46053  53.0921 205.2010 0001944  64.7141  29.9121 15.15796453  5826
STARLINK-1548,46054,53.0932,0.0001271,15.15927105,517.2888631042451,519.0419031700394,1 46054U 20055AD  26048.91668981  .00109124  00000+0  55571-2 0  9990,2 46054  53.0932 205.1805 0001271  54.2455  11.7565 15.15927105  5422
STARLINK-1554,46055,53.0903,0.0001863,15.15125997,519.3108364626269,521.8813044046701,1 46055U 20055AE  26048.91668981  .00079983  00000+0  41877-2 0  9994,2 46055  53.0903 205.1860 0001863  72.1358  70.9411 15.15125997  5831
STARLINK-1564,46058,53.0922,0.0001463,15.15775178,517.6171925002618,519.6351854093491,1 46058U 20055AH  26048.91668981  .00111306  00000+0  56906-2 0  9992,2 46058  53.0922 205.6576 0001463  54.1792  23.6869 15.15775178  5825
STARLINK-1570,46059,53.0869,0.0001611,15.14278006,522.0595421282396,524.2831436763217,1 46059U 20055AJ  26048.91668981  .01563421  00000+0  76636-1 0  9994,2 46059  53.0869 205.2714 0001611 106.7130 128.9193 15.14278006  5737
STARLINK-1572,46060,53.0873,0.0001206,15.14634793,521.2553529388742,522.9196870931019,1 46060U 20055AK  26048.91668981  .00104365  00000+0  55169-2 0  9992,2 46060  53.0873 205.2302 0001206 141.3103 136.6862 15.14634793  5831
STARLINK-1573,46061,53.0916,9.02e-05,15.15102696,520.0445292753502,521.289073481119,1 46061U 20055AL  26048.91668981  .01509231  00000+0  72530-1 0  9995,2 46061  53.0916 205.2786 0000902 123.4953 168.4284 15.15102696  5780
STARLINK-1577,46063,53.0927,0.0002008,15.15344206,518.5486452678933,521.3189104922903,1 46063U 20055AN  26048.91668981  .01519689  00000+0  72500-1 0  9992,2 46063  53.0927 205.2327 0002008  86.7454  69.7669 15.15344206  5832
STARLINK-1583,46064,53.0915,3.74e-05,15.15101332,520.4129264838139,520.9289573178676,1 46064U 20055AP  26048.91668981  .01545796  00000+0  74113-1 0  9993,2 46064  53.0915 205.2444 0000374 119.3297 210.8892 15.15101332  5683
STARLINK-1525,46066,53.0566,0.0001431,15.06387133,546.2599706988913,548.2420167426944,1 46066U 20055AR  26048.60276090 -.00000093  00000+0  12673-4 0  9999,2 46066  53.0566 186.7916 0001431 111.4074 248.7068 15.06387133306274
STARLINK-1536,46070,53.056,0.0001371,15.06397651,546.2692910199903,548.1682235686403,1 46070U 20055AV  26048.71333201  .00000896  00000+0  79030-4 0  9994,2 46070  53.0560 186.2957 0001371  77.6745 282.4397 15.06397651306304
STARLINK-1542,46073,53.0539,0.0001211,15.06406038,546.3543949303748,548.0317098690666,1 46073U 20055AY  26048.63960968 -.00000491  00000+0 -14070-4 0  9990,2 46073  53.0539 186.6257 0001211  89.8051 270.3076 15.06406038306285
STARLINK-1549,46074,53.0559,0.0001919,15.06403737,545.871132404809,548.5290767855522,1 46074U 20055AZ  26048.75756836 -.00001231  00000+0 -63762-4 0  9996,2 46074  53.0559 186.0964 0001919 108.6802 251.4396 15.06403737306295
STARLINK-1551,46075,53.0567,0.0001315,15.06420303,546.2386577135558,548.0600080190989,1 46075U 20055BA  26048.78334627  .00001051  00000+0  89408-4 0  9993,2 46075  53.0567 185.9778 0001315  93.0484 267.0655 15.06420303306300
STARLINK-1552,46076,53.0565,0.000125,15.06400352,546.3448106742962,548.0761475440731,1 46076U 20055BB  26048.74281880  .00000633  00000+0  61404-4 0  9993,2 46076  53.0565 186.1632 0001250  88.2946 271.8186 15.06400352306289
